{
"type": "FeatureCollection",
"name": "Conexion_operacional",
"crs": { "type": "name", "properties": { "name": "urn:ogc:def:crs:OGC:1.3:CRS84" } },
"features": [
{"type":"Feature","properties":{"latitud":4.60216644,"longitud":-74.0766654,"objectid":1,"id_conexio":"CN001","conexion":"Carrera 10 - Eje Ambiental","esta_oper":1,"tip_conex":1,"eta_oper":1,"globalid":"{2357067B-5E7D-452A-B5C6-1BDAE137FD93}","created_user":null,"created_date":null,"last_edited_user":null,"last_edited_date":null},"geometry":{"type":"Point","coordinates":[-74.076665403173976,4.602166442935844,0.0]}},
{"type":"Feature","properties":{"latitud":4.6036552,"longitud":-74.07986393,"objectid":2,"id_conexio":"CN002","conexion":"Caracas Centro - Americas","esta_oper":1,"tip_conex":1,"eta_oper":1,"globalid":"{DEBE4BF8-6EAA-4E5F-B6A8-C3E57085363A}","created_user":null,"created_date":null,"last_edited_user":null,"last_edited_date":null},"geometry":{"type":"Point","coordinates":[-74.079863928240187,4.603655204010173,0.0]}},
{"type":"Feature","properties":{"latitud":4.56909667,"longitud":-74.12550392,"objectid":3,"id_conexio":"CN003","conexion":"Tunal - Caracas Sur","esta_oper":1,"tip_conex":1,"eta_oper":1,"globalid":"{61C06661-2820-4F73-B965-EF9744267869}","created_user":null,"created_date":null,"last_edited_user":null,"last_edited_date":null},"geometry":{"type":"Point","coordinates":[-74.125503920528132,4.569096670506233,0.0]}},
{"type":"Feature","properties":{"latitud":4.63182699,"longitud":-74.07976143,"objectid":4,"id_conexio":"CN004","conexion":"Calle 26 - NQS Central","esta_oper":1,"tip_conex":1,"eta_oper":1,"globalid":"{78FFE5E6-2F9A-4BDA-A936-FF261010A6F0}","created_user":null,"created_date":null,"last_edited_user":null,"last_edited_date":null},"geometry":{"type":"Point","coordinates":[-74.079761427746945,4.631826994036848,0.0]}},
{"type":"Feature","properties":{"latitud":4.67433794,"longitud":-74.06862622,"objectid":5,"id_conexio":"CN005","conexion":"Calle 80 - NQS Central - Suba","esta_oper":1,"tip_conex":2,"eta_oper":1,"globalid":"{430B72F8-81F2-476B-AA4D-F74987C4181D}","created_user":null,"created_date":null,"last_edited_user":null,"last_edited_date":null},"geometry":{"type":"Point","coordinates":[-74.068626220086799,4.674337944189127,0.0]}},
{"type":"Feature","properties":{"latitud":4.61417147,"longitud":-74.09182089000001,"objectid":6,"id_conexio":"CN006","conexion":"NQS Central - Americas","esta_oper":1,"tip_conex":1,"eta_oper":1,"globalid":"{66642F53-9A8A-4D15-A448-C8262422AB8C}","created_user":null,"created_date":null,"last_edited_user":null,"last_edited_date":null},"geometry":{"type":"Point","coordinates":[-74.091820890779758,4.614171474339758,0.0]}},
{"type":"Feature","properties":{"latitud":4.6154043,"longitud":-74.07279129,"objectid":7,"id_conexio":"CN007","conexion":"Calle 26 - Caracas Centro","esta_oper":1,"tip_conex":4,"eta_oper":1,"globalid":"{51FEB083-D22F-41D4-AB3A-6B613FDA44B8}","created_user":null,"created_date":null,"last_edited_user":null,"last_edited_date":null},"geometry":{"type":"Point","coordinates":[-74.072791293823798,4.615404298722205,0.0]}},
{"type":"Feature","properties":{"latitud":4.61211793,"longitud":-74.07076897,"objectid":8,"id_conexio":"CN008","conexion":"Calle 26 - Carrera 10","esta_oper":1,"tip_conex":4,"eta_oper":1,"globalid":"{1E53F684-B130-4341-8764-F2A45841EC5C}","created_user":null,"created_date":null,"last_edited_user":null,"last_edited_date":null},"geometry":{"type":"Point","coordinates":[-74.070768972224556,4.612117927742196,0.0]}},
{"type":"Feature","properties":{"latitud":4.68026566,"longitud":-74.05832791,"objectid":9,"id_conexio":"CN009","conexion":"NQS Central - Autopista Norte","esta_oper":1,"tip_conex":3,"eta_oper":1,"globalid":"{223D9FCA-36CF-453C-8385-20394D3028A1}","created_user":null,"created_date":null,"last_edited_user":null,"last_edited_date":null},"geometry":{"type":"Point","coordinates":[-74.05832791383186,4.680265663717974,0.0]}},
{"type":"Feature","properties":{"latitud":4.60637542,"longitud":-74.09807197,"objectid":10,"id_conexio":"CN010","conexion":"Calle 6 - NQS Central - NQS Sur","esta_oper":1,"tip_conex":2,"eta_oper":1,"globalid":"{E27E19AA-1CA8-4784-B83F-8375E333FE45}","created_user":null,"created_date":null,"last_edited_user":null,"last_edited_date":null},"geometry":{"type":"Point","coordinates":[-74.098071971924682,4.606375416043476,0.0]}},
{"type":"Feature","properties":{"latitud":4.66451047,"longitud":-74.06099441000001,"objectid":11,"id_conexio":"CN011","conexion":"Calle 80 - Caracas Centro - Autopista Norte","esta_oper":1,"tip_conex":1,"eta_oper":1,"globalid":"{42AF4C7A-3744-45C3-BDF8-C859BCF44967}","created_user":null,"created_date":null,"last_edited_user":null,"last_edited_date":null},"geometry":{"type":"Point","coordinates":[-74.060980944635787,4.664510929173935,0.0]}},
{"type":"Feature","properties":{"latitud":4.59465731,"longitud":-74.0813923,"objectid":12,"id_conexio":"CN012","conexion":"Calle 6 - Carrera 10","esta_oper":1,"tip_conex":2,"eta_oper":1,"globalid":"{3F7D4DA8-1E12-44A6-9B97-01F27EECE2E9}","created_user":null,"created_date":null,"last_edited_user":null,"last_edited_date":null},"geometry":{"type":"Point","coordinates":[-74.081392302455185,4.594657306509409,0.0]}},
{"type":"Feature","properties":{"latitud":4.5970752,"longitud":-74.08471171,"objectid":13,"id_conexio":"CN013","conexion":"Calle 6 - Caracas Centro - Caracas Sur","esta_oper":1,"tip_conex":1,"eta_oper":1,"globalid":"{D19254B4-680A-4450-8A33-3FEDAAB6F239}","created_user":null,"created_date":null,"last_edited_user":null,"last_edited_date":null},"geometry":{"type":"Point","coordinates":[-74.084711707412922,4.597075196234545,0.0]}}
]
}
