{
"type": "FeatureCollection",
"name": "ESTACIONES",
"features": [
{ "type": "Feature", "properties": { "OBJECTID": 1, "RefName": "Portal de las Américas-02", "NUMERO": "02", "NOMBRE": "E02", "Shape_Leng": 356.20026749499999, "Shape_Area": 4215.0112393999998, "TIPO": "No Definida" }, "geometry": { "type": "MultiPolygon", "coordinates": [ [ [ [ 89482.408800000324845, 103797.846000000834465, 0.0 ], [ 89507.208599999547005, 103811.059000000357628, 0.0 ], [ 89577.740600000135601, 103678.676000000908971, 0.0 ], [ 89552.940799999982119, 103665.462999999523163, 0.0 ], [ 89482.408800000324845, 103797.846000000834465, 0.0 ] ] ] ] } },
{ "type": "Feature", "properties": { "OBJECTID": 2, "RefName": "Carrera 80-03", "NUMERO": "03", "NOMBRE": "E03", "Shape_Leng": 320.39985234800002, "Shape_Area": 2203.98914358, "TIPO": "No Definida" }, "geometry": { "type": "MultiPolygon", "coordinates": [ [ [ [ 90144.907999999821186, 102819.805500000715256, 0.0 ], [ 90131.825000000186265, 102812.068099999800324, 0.0 ], [ 90058.012500000186265, 102936.874800000339746, 0.0 ], [ 90071.095800000242889, 102944.612400000914931, 0.0 ], [ 90144.907999999821186, 102819.805500000715256, 0.0 ] ] ] ] } },
{ "type": "Feature", "properties": { "OBJECTID": 3, "RefName": "Calle 42 Sur-04", "NUMERO": "04", "NOMBRE": "E04", "Shape_Leng": 320.39996520900002, "Shape_Area": 2203.99540815, "TIPO": "No Definida" }, "geometry": { "type": "MultiPolygon", "coordinates": [ [ [ [ 90726.809600000269711, 102152.9682, 0.0 ], [ 90869.60910000000149, 102178.133799999952316, 0.0 ], [ 90872.247100000269711, 102163.164499999955297, 0.0 ], [ 90729.447599999606609, 102137.9989, 0.0 ], [ 90726.809600000269711, 102152.9682, 0.0 ] ] ] ] } },
{ "type": "Feature", "properties": { "OBJECTID": 4, "RefName": "Kennedy-05", "NUMERO": "05", "NOMBRE": "E05", "Shape_Leng": 320.39976824399997, "Shape_Area": 2203.99391122, "TIPO": "No Definida" }, "geometry": { "type": "MultiPolygon", "coordinates": [ [ [ [ 91706.783400000073016, 102325.669299999251962, 0.0 ], [ 91849.582799999974668, 102350.834899999201298, 0.0 ], [ 91852.220800000242889, 102335.865599999204278, 0.0 ], [ 91709.421400000341237, 102310.699999999254942, 0.0 ], [ 91706.783400000073016, 102325.669299999251962, 0.0 ] ] ] ] } },
{ "type": "Feature", "properties": { "OBJECTID": 5, "RefName": "Av Boyaca-06", "NUMERO": "06", "NOMBRE": "E06", "Shape_Leng": 349.20320176400003, "Shape_Area": 3690.00620278, "TIPO": "No Definida" }, "geometry": { "type": "MultiPolygon", "coordinates": [ [ [ [ 92922.234299999661744, 102478.962600000202656, 0.0 ], [ 92931.548600000329316, 102501.731100000441074, 0.0 ], [ 93057.51589999999851, 102450.199400000274181, 0.0 ], [ 93058.063500000163913, 102449.975400000810623, 0.0 ], [ 93058.811499999836087, 102449.669399999082088, 0.0 ], [ 93059.181699999608099, 102449.517899999395013, 0.0 ], [ 93068.714900000020862, 102445.618000000715256, 0.0 ], [ 93070.38370000012219, 102444.935300000011921, 0.0 ], [ 93069.517300000414252, 102442.825500000268221, 0.0 ], [ 93068.29839999973774, 102439.846000000834465, 0.0 ], [ 93067.918399999849498, 102438.916999999433756, 0.0 ], [ 93067.628899999894202, 102438.209499999880791, 0.0 ], [ 93066.818099999800324, 102436.227600000798702, 0.0 ], [ 93065.723699999973178, 102433.552300000563264, 0.0 ], [ 93064.392900000326335, 102430.299100000411272, 0.0 ], [ 93064.216799999587238, 102429.868699999526143, 0.0 ], [ 93062.604700000025332, 102425.927999999374151, 0.0 ], [ 93061.066499999724329, 102422.167999999597669, 0.0 ], [ 93049.86739999987185, 102426.749399999156594, 0.0 ], [ 93049.497200000099838, 102426.900900000706315, 0.0 ], [ 93048.201399999670684, 102427.43099999986589, 0.0 ], [ 92922.234299999661744, 102478.962600000202656, 0.0 ] ] ] ] } },
{ "type": "Feature", "properties": { "OBJECTID": 6, "RefName": "Av 68-07", "NUMERO": "07", "NOMBRE": "E07", "Shape_Leng": 324.399858107, "Shape_Area": 2494.0015733099999, "TIPO": "No Definida" }, "geometry": { "type": "MultiPolygon", "coordinates": [ [ [ [ 94306.627199999988079, 101410.983500000089407, 0.0 ], [ 94318.620900000445545, 101423.312000000849366, 0.0 ], [ 94422.553199999965727, 101322.202899999916553, 0.0 ], [ 94410.559500000439584, 101309.874399999156594, 0.0 ], [ 94306.627199999988079, 101410.983500000089407, 0.0 ] ] ] ] } },
{ "type": "Feature", "properties": { "OBJECTID": 7, "RefName": "Cra 50-08", "NUMERO": "08", "NOMBRE": "E08", "Shape_Leng": 344.79491219800002, "Shape_Area": 3359.9443418000001, "TIPO": "No Definida" }, "geometry": { "type": "MultiPolygon", "coordinates": [ [ [ [ 95207.530299999751151, 100675.297700000926852, 0.0 ], [ 95195.43790000025183, 100656.442099999636412, 0.0 ], [ 95069.205400000326335, 100737.459499999880791, 0.0 ], [ 95081.293499999679625, 100756.317900000140071, 0.0 ], [ 95207.530299999751151, 100675.297700000926852, 0.0 ] ] ] ] } },
{ "type": "Feature", "properties": { "OBJECTID": 8, "RefName": "NQS-09", "NUMERO": "09", "NOMBRE": "E09", "Shape_Leng": 334.399981916, "Shape_Area": 2580.00230633, "TIPO": "No Definida" }, "geometry": { "type": "MultiPolygon", "coordinates": [ [ [ [ 96243.649100000038743, 100078.602800000458956, 0.0 ], [ 96236.13329999987036, 100094.073799999430776, 0.0 ], [ 96371.05489999987185, 100159.618899999186397, 0.0 ], [ 96378.570700000040233, 100144.14780000038445, 0.0 ], [ 96243.649100000038743, 100078.602800000458956, 0.0 ] ] ] ] } },
{ "type": "Feature", "properties": { "OBJECTID": 9, "RefName": "Nariño-10", "NUMERO": "10", "NOMBRE": "E10", "Shape_Leng": 320.399939819, "Shape_Area": 2203.9991330600001, "TIPO": "No Definida" }, "geometry": { "type": "MultiPolygon", "coordinates": [ [ [ [ 97774.087600000202656, 99816.618899999186397, 0.0 ], [ 97912.379900000058115, 99773.027300000190735, 0.0 ], [ 97907.810300000011921, 99758.5304000005126, 0.0 ], [ 97769.518000000156462, 99802.122099999338388, 0.0 ], [ 97774.087600000202656, 99816.618899999186397, 0.0 ] ] ] ] } },
{ "type": "Feature", "properties": { "OBJECTID": 10, "RefName": "Calle 1ra-11", "NUMERO": "11", "NOMBRE": "E11", "Shape_Leng": 334.40001435400001, "Shape_Area": 2580.0063912000001, "TIPO": "No Definida" }, "geometry": { "type": "MultiPolygon", "coordinates": [ [ [ [ 98911.943099999800324, 99732.908900000154972, 0.0 ], [ 99007.216000000014901, 99848.766799999400973, 0.0 ], [ 99020.50109999999404, 99837.842100000008941, 0.0 ], [ 98925.228099999949336, 99721.984200000762939, 0.0 ], [ 98911.943099999800324, 99732.908900000154972, 0.0 ] ] ] ] } },
{ "type": "Feature", "properties": { "OBJECTID": 11, "RefName": "Calle 10-12", "NUMERO": "12", "NOMBRE": "E12", "Shape_Leng": 336.40010711399998, "Shape_Area": 2730.00360507, "TIPO": "No Definida" }, "geometry": { "type": "MultiPolygon", "coordinates": [ [ [ [ 99707.217199999839067, 100787.56389999948442, 0.0 ], [ 99722.010599999688566, 100776.962200000882149, 0.0 ], [ 99634.63399999961257, 100655.038699999451637, 0.0 ], [ 99619.840599999763072, 100665.640399999916553, 0.0 ], [ 99707.217199999839067, 100787.56389999948442, 0.0 ] ] ] ] } },
{ "type": "Feature", "properties": { "OBJECTID": 12, "RefName": "Calle 26-13", "NUMERO": "13", "NOMBRE": "E13", "Shape_Leng": 324.40004741500002, "Shape_Area": 2494.0051085099999, "TIPO": "No Definida" }, "geometry": { "type": "MultiPolygon", "coordinates": [ [ [ [ 100439.277499999850988, 101971.609099999070168, 0.0 ], [ 100454.600499999709427, 101963.7956000007689, 0.0 ], [ 100388.731399999931455, 101834.620300000533462, 0.0 ], [ 100373.408599999733269, 101842.433700000867248, 0.0 ], [ 100439.277499999850988, 101971.609099999070168, 0.0 ] ] ] ] } },
{ "type": "Feature", "properties": { "OBJECTID": 13, "RefName": "Calle 45-14", "NUMERO": "14", "NOMBRE": "E14", "Shape_Leng": 336.40016546099997, "Shape_Area": 2730.0079413899998, "TIPO": "No Definida" }, "geometry": { "type": "MultiPolygon", "coordinates": [ [ [ [ 101083.977900000289083, 103904.270600000396371, 0.0 ], [ 101057.227699999697506, 103756.675100000575185, 0.0 ], [ 101039.319299999624491, 103759.920800000429153, 0.0 ], [ 101066.06969999987632, 103907.51630000025034, 0.0 ], [ 101083.977900000289083, 103904.270600000396371, 0.0 ] ] ] ] } },
{ "type": "Feature", "properties": { "OBJECTID": 14, "RefName": "Calle 63-15", "NUMERO": "15", "NOMBRE": "E15", "Shape_Leng": 334.39996383300002, "Shape_Area": 2579.9933418199998, "TIPO": "No Definida" }, "geometry": { "type": "MultiPolygon", "coordinates": [ [ [ [ 101418.171699999831617, 105884.712200000882149, 0.0 ], [ 101435.105200000107288, 105881.696699999272823, 0.0 ], [ 101408.807500000111759, 105734.019899999722838, 0.0 ], [ 101391.8739, 105737.035399999469519, 0.0 ], [ 101418.171699999831617, 105884.712200000882149, 0.0 ] ] ] ] } },
{ "type": "Feature", "properties": { "OBJECTID": 15, "RefName": "Calle 72-16", "NUMERO": "16", "NOMBRE": "E16", "Shape_Leng": 343.99987850600002, "Shape_Area": 3299.9962829000001, "TIPO": "No Definida" }, "geometry": { "type": "MultiPolygon", "coordinates": [ [ [ [ 101757.480600000359118, 107039.699699999764562, 0.0 ], [ 101735.802799999713898, 107043.450699999928474, 0.0 ], [ 101761.377799999900162, 107191.254300000146031, 0.0 ], [ 101783.055700000375509, 107187.503299999982119, 0.0 ], [ 101757.480600000359118, 107039.699699999764562, 0.0 ] ] ] ] } },
{ "type": "Feature", "properties": { "OBJECTID": 16, "RefName": "Cra 96-01", "NUMERO": "01", "NOMBRE": "E01", "Shape_Leng": 344.801037167, "Shape_Area": 3360.0610290599998, "TIPO": "No Definida" }, "geometry": { "type": "MultiPolygon", "coordinates": [ [ [ [ 88863.081199999898672, 104966.328099999576807, 0.0 ], [ 88882.851099999621511, 104976.86119999922812, 0.0 ], [ 88953.382399999536574, 104844.478000000119209, 0.0 ], [ 88933.613400000147521, 104833.944900000467896, 0.0 ], [ 88863.081199999898672, 104966.328099999576807, 0.0 ] ] ] ] } }
]
}
