{
"type": "FeatureCollection",
"name": "Retorno_operacional",
"crs": { "type": "name", "properties": { "name": "urn:ogc:def:crs:OGC:1.3:CRS84" } },
"features": [
{"type":"Feature","properties":{"ub_ret":"Costado Occidental","longitud":-74.20092974000001,"latitud":4.58824877,"objectid":196,"id_retorno":"RT042","nombre":"Terreros","observ":"Sin observacion","id_trazado":"TZ011","esta_oper":1,"tip_ret":2,"eta_oper":1,"buses_hora":0,"sentido":11,"globalid":"{71ADA934-D94C-4C44-8DF1-CE7985A20B1A}","created_user":null,"created_date":null,"last_edited_user":null,"last_edited_date":null},"geometry":{"type":"Point","coordinates":[-74.200929743640515,4.588248770568018,0.0]}},
{"type":"Feature","properties":{"ub_ret":"Costado Oriental","longitud":-74.10793933000001,"latitud":4.66062084,"objectid":197,"id_retorno":"RT016","nombre":"Avenida Rojas","observ":"Sin observacion","id_trazado":"TZ016","esta_oper":1,"tip_ret":2,"eta_oper":1,"buses_hora":0,"sentido":11,"globalid":"{E38E09C8-2305-4BE8-8F86-C0C47B722C96}","created_user":null,"created_date":null,"last_edited_user":null,"last_edited_date":null},"geometry":{"type":"Point","coordinates":[-74.107939332077706,4.660620844380441,0.0]}},
{"type":"Feature","properties":{"ub_ret":"Costado Sur - Oriental","longitud":-74.06256217000001,"latitud":4.65571241,"objectid":198,"id_retorno":"RT026","nombre":"Flores","observ":"Mixto giro a la izquierda","id_trazado":"TZ001","esta_oper":1,"tip_ret":1,"eta_oper":1,"buses_hora":0,"sentido":1,"globalid":"{50F8323C-3F81-4002-B260-ECDFC4EE5DCC}","created_user":null,"created_date":null,"last_edited_user":null,"last_edited_date":null},"geometry":{"type":"Point","coordinates":[-74.062562172870699,4.655712409324937,0.0]}},
{"type":"Feature","properties":{"ub_ret":"Calle 183","longitud":-74.04519049000001,"latitud":4.75955911,"objectid":199,"id_retorno":"RT008","nombre":"Puente Calle 183","observ":"Sin observacion","id_trazado":"TZ002","esta_oper":1,"tip_ret":1,"eta_oper":1,"buses_hora":0,"sentido":2,"globalid":"{D1E8A424-5BA8-423D-8A15-BA28CE32EA37}","created_user":null,"created_date":null,"last_edited_user":null,"last_edited_date":null},"geometry":{"type":"Point","coordinates":[-74.045190486657347,4.759559105471133,0.0]}},
{"type":"Feature","properties":{"ub_ret":"Costado Occidental","longitud":-74.09217191,"latitud":4.63606147,"objectid":200,"id_retorno":"RT014","nombre":"Recinto Ferial","observ":"Sin observacion","id_trazado":"TZ016","esta_oper":1,"tip_ret":2,"eta_oper":1,"buses_hora":0,"sentido":11,"globalid":"{FA6BE61F-551A-4F8D-B095-C41D66670A26}","created_user":null,"created_date":null,"last_edited_user":null,"last_edited_date":null},"geometry":{"type":"Point","coordinates":[-74.09217190524636,4.636061469687561,0.0]}},
{"type":"Feature","properties":{"ub_ret":"Costado Sur","longitud":-74.08288615000001,"latitud":4.59248545,"objectid":201,"id_retorno":"RT029","nombre":"Bicentenario","observ":"Sin observacion","id_trazado":"TZ018","esta_oper":1,"tip_ret":2,"eta_oper":1,"buses_hora":0,"sentido":5,"globalid":"{4EA96BE0-FD3D-40A7-89A5-8C9350444E75}","created_user":null,"created_date":null,"last_edited_user":null,"last_edited_date":null},"geometry":{"type":"Point","coordinates":[-74.08288614817009,4.592485451414983,0.0]}},
{"type":"Feature","properties":{"ub_ret":"Costado Norte (Calle 64)","longitud":-74.07739694,"latitud":4.65854914,"objectid":202,"id_retorno":"RT036","nombre":"Simon Bolivar","observ":"Sin observacion","id_trazado":"TZ008","esta_oper":1,"tip_ret":2,"eta_oper":1,"buses_hora":44,"sentido":5,"globalid":"{6254518C-92E0-426F-AED6-74EFB40DC1A1}","created_user":null,"created_date":null,"last_edited_user":null,"last_edited_date":null},"geometry":{"type":"Point","coordinates":[-74.077396939330512,4.658549139542434,0.0]}},
{"type":"Feature","properties":{"ub_ret":"Costado Occidental","longitud":-74.20706635,"latitud":4.58516291,"objectid":203,"id_retorno":"RT043","nombre":"San Mateo","observ":"Sin observacion","id_trazado":"TZ011","esta_oper":1,"tip_ret":1,"eta_oper":1,"buses_hora":0,"sentido":4,"globalid":"{E820A482-A103-441A-A54A-087506EED717}","created_user":null,"created_date":null,"last_edited_user":null,"last_edited_date":null},"geometry":{"type":"Point","coordinates":[-74.207066347911478,4.585162909273957,0.0]}},
{"type":"Feature","properties":{"ub_ret":"Costado Norte (Avenida Americas)","longitud":-74.08289405000001,"latitud":4.62491922,"objectid":204,"id_retorno":"RT037","nombre":"Cad","observ":"Sin observacion","id_trazado":"TZ008","esta_oper":1,"tip_ret":2,"eta_oper":1,"buses_hora":0,"sentido":5,"globalid":"{255DAAC4-5030-4F88-AF98-08C885E7E3FE}","created_user":null,"created_date":null,"last_edited_user":null,"last_edited_date":null},"geometry":{"type":"Point","coordinates":[-74.082894051517997,4.624919218985425,0.0]}},
{"type":"Feature","properties":{"ub_ret":"Costado Occidental","longitud":-74.14726756,"latitud":4.63162091,"objectid":205,"id_retorno":"RT001","nombre":"Banderas","observ":"Sin observacion","id_trazado":"TZ009","esta_oper":1,"tip_ret":1,"eta_oper":1,"buses_hora":113,"sentido":4,"globalid":"{92ADDC91-62DE-42E8-87D0-E32BF6B86D5D}","created_user":null,"created_date":null,"last_edited_user":null,"last_edited_date":null},"geometry":{"type":"Point","coordinates":[-74.147267558630702,4.631620908040722,0.0]}},
{"type":"Feature","properties":{"ub_ret":"Costado Norte (Calle 138)","longitud":-74.05112405,"latitud":4.72314623,"objectid":206,"id_retorno":"RT009","nombre":"Alcala","observ":"Sin observacion","id_trazado":"TZ002","esta_oper":1,"tip_ret":2,"eta_oper":1,"buses_hora":61,"sentido":5,"globalid":"{C47521F8-5114-4027-AB8A-A1BDF74CD842}","created_user":null,"created_date":null,"last_edited_user":null,"last_edited_date":null},"geometry":{"type":"Point","coordinates":[-74.051124045955063,4.723146227204803,0.0]}},
{"type":"Feature","properties":{"ub_ret":"Costado Sur (Calle 9 Sur)","longitud":-74.10766209000001,"latitud":4.59801999,"objectid":207,"id_retorno":"RT044","nombre":"Santa Isabel","observ":"Sin observacion","id_trazado":"TZ010","esta_oper":1,"tip_ret":1,"eta_oper":1,"buses_hora":0,"sentido":1,"globalid":"{65B9EF98-961C-4FAC-B180-2D1D0D63A208}","created_user":null,"created_date":null,"last_edited_user":null,"last_edited_date":null},"geometry":{"type":"Point","coordinates":[-74.107662093074254,4.598019994674338,0.0]}},
{"type":"Feature","properties":{"ub_ret":"Costado Norte Calle","longitud":-74.06014642000001,"latitud":4.66909186,"objectid":208,"id_retorno":"RT010","nombre":"Heroes","observ":"Sin observacion","id_trazado":"TZ002","esta_oper":1,"tip_ret":2,"eta_oper":1,"buses_hora":0,"sentido":5,"globalid":"{AD266ECA-B3ED-4309-AED1-E8FAAB9F1925}","created_user":null,"created_date":null,"last_edited_user":null,"last_edited_date":null},"geometry":{"type":"Point","coordinates":[-74.060146421231508,4.669091856108019,0.0]}},
{"type":"Feature","properties":{"ub_ret":"Distrito Grafiti","longitud":-74.11352021,"latitud":4.62802117,"objectid":209,"id_retorno":"RT002","nombre":"Distrito Grafiti","observ":"Sin observacion","id_trazado":"TZ009","esta_oper":1,"tip_ret":2,"eta_oper":1,"buses_hora":0,"sentido":11,"globalid":"{8F4408C3-4167-4E87-80C5-719378D51F4E}","created_user":null,"created_date":null,"last_edited_user":null,"last_edited_date":null},"geometry":{"type":"Point","coordinates":[-74.11352021251426,4.628021164981041,0.0]}},
{"type":"Feature","properties":{"ub_ret":"Costado Norte (Calle 55 Sur)","longitud":-74.13440763,"latitud":4.56873234,"objectid":210,"id_retorno":"RT027","nombre":"Parque","observ":"Retorno semaforico","id_trazado":"TZ014","esta_oper":1,"tip_ret":1,"eta_oper":1,"buses_hora":0,"sentido":2,"globalid":"{A5933506-1FA3-4AC7-AB6C-070BC24C635F}","created_user":null,"created_date":null,"last_edited_user":null,"last_edited_date":null},"geometry":{"type":"Point","coordinates":[-74.134407627422647,4.568732341091793,0.0]}},
{"type":"Feature","properties":{"ub_ret":"Costado Occidental","longitud":-74.13224697,"latitud":4.62989674,"objectid":211,"id_retorno":"RT003","nombre":"Marsella","observ":"Sin observacion","id_trazado":"TZ009","esta_oper":1,"tip_ret":2,"eta_oper":1,"buses_hora":0,"sentido":11,"globalid":"{BF14B188-280B-47E3-87F7-2FAD35D28267}","created_user":null,"created_date":null,"last_edited_user":null,"last_edited_date":null},"geometry":{"type":"Point","coordinates":[-74.132246973431691,4.62989674013038,0.0]}},
{"type":"Feature","properties":{"ub_ret":"Costado Occidental","longitud":-74.07093202,"latitud":4.67621206,"objectid":212,"id_retorno":"RT023","nombre":"Escuela Militar","observ":"Sin observacion","id_trazado":"TZ005","esta_oper":1,"tip_ret":1,"eta_oper":1,"buses_hora":0,"sentido":4,"globalid":"{D365B5F2-DE6E-412B-A944-7E620DA4F874}","created_user":null,"created_date":null,"last_edited_user":null,"last_edited_date":null},"geometry":{"type":"Point","coordinates":[-74.070932023809902,4.676212062593878,0.0]}},
{"type":"Feature","properties":{"ub_ret":"Costado Occidental","longitud":-74.153403160000011,"latitud":4.63552339,"objectid":213,"id_retorno":"RT004","nombre":"Transversal 86","observ":"Sin observacion","id_trazado":"TZ009","esta_oper":1,"tip_ret":1,"eta_oper":1,"buses_hora":0,"sentido":4,"globalid":"{97846026-24A9-47F9-89FD-1C4973D70634}","created_user":null,"created_date":null,"last_edited_user":null,"last_edited_date":null},"geometry":{"type":"Point","coordinates":[-74.153403160465828,4.63552338595414,0.0]}},
{"type":"Feature","properties":{"ub_ret":"Glorieta Costado Sur (Calle 19 -Carrera 3)","longitud":-74.06793108,"latitud":4.60340528,"objectid":214,"id_retorno":"RT017","nombre":"Universidades","observ":"Sin observacion","id_trazado":"TZ016","esta_oper":1,"tip_ret":1,"eta_oper":1,"buses_hora":0,"sentido":1,"globalid":"{B1F04688-F8BC-4A8E-9AB0-5B6DBC22706D}","created_user":null,"created_date":null,"last_edited_user":null,"last_edited_date":null},"geometry":{"type":"Point","coordinates":[-74.067931075618191,4.603405279617253,0.0]}},
{"type":"Feature","properties":{"ub_ret":"Costado Occidental (Carerra 87)","longitud":-74.1022404,"latitud":4.7036194,"objectid":215,"id_retorno":"RT024","nombre":"Avenida Cali","observ":"Sin observacion","id_trazado":"TZ005","esta_oper":1,"tip_ret":1,"eta_oper":1,"buses_hora":39,"sentido":4,"globalid":"{98BEA912-387E-4A22-988E-2CEF3A1120D1}","created_user":null,"created_date":null,"last_edited_user":null,"last_edited_date":null},"geometry":{"type":"Point","coordinates":[-74.102240400288096,4.703619402807223,0.0]}},
{"type":"Feature","properties":{"ub_ret":"Costado Sur","longitud":-74.07885096,"latitud":4.64391271,"objectid":216,"id_retorno":"RT038","nombre":"Campin","observ":"Sin observacion","id_trazado":"TZ008","esta_oper":1,"tip_ret":2,"eta_oper":1,"buses_hora":0,"sentido":5,"globalid":"{619D9127-A397-4AD9-A2CD-0FD602895324}","created_user":null,"created_date":null,"last_edited_user":null,"last_edited_date":null},"geometry":{"type":"Point","coordinates":[-74.07885095588712,4.643912713850164,0.0]}},
{"type":"Feature","properties":{"ub_ret":"Costado Oriental (Carerra 85)","longitud":-74.07685711000001,"latitud":4.73296896,"objectid":217,"id_retorno":"RT046","nombre":"21 Angeles","observ":"Sin observacion","id_trazado":"TZ003","esta_oper":1,"tip_ret":2,"eta_oper":1,"buses_hora":0,"sentido":5,"globalid":"{A8F07E49-1FAA-4DD8-B6EB-54DD83B11608}","created_user":null,"created_date":null,"last_edited_user":null,"last_edited_date":null},"geometry":{"type":"Point","coordinates":[-74.076857112447726,4.7329689635239,0.0]}},
{"type":"Feature","properties":{"ub_ret":"Costado Occidental (Carerra 50B)","longitud":-74.13040377,"latitud":4.59357181,"objectid":218,"id_retorno":"RT045","nombre":"General Santander","observ":"Sin observacion","id_trazado":"TZ010","esta_oper":1,"tip_ret":2,"eta_oper":1,"buses_hora":23,"sentido":11,"globalid":"{42F95C54-449B-4E7A-86DE-B4053DC7A295}","created_user":null,"created_date":null,"last_edited_user":null,"last_edited_date":null},"geometry":{"type":"Point","coordinates":[-74.130403772816123,4.593571812759595,0.0]}},
{"type":"Feature","properties":{"ub_ret":"Costado Norte (Fuera Del Portal)","longitud":-74.04574359,"latitud":4.75636827,"objectid":219,"id_retorno":"RT012","nombre":"Portal Norte - Norte","observ":"Sin observacion","id_trazado":"TZ002","esta_oper":1,"tip_ret":1,"eta_oper":1,"buses_hora":0,"sentido":2,"globalid":"{77FF4053-430C-421C-98F9-6F252913461A}","created_user":null,"created_date":null,"last_edited_user":null,"last_edited_date":null},"geometry":{"type":"Point","coordinates":[-74.045743592138919,4.75636827090155,0.0]}},
{"type":"Feature","properties":{"ub_ret":"Avenida Cali - Avenida Americas","longitud":-74.15631554000001,"latitud":4.64079424,"objectid":220,"id_retorno":"RT005","nombre":"Glorieta Avenida Cali","observ":"Sin observacion","id_trazado":"TZ009","esta_oper":1,"tip_ret":3,"eta_oper":1,"buses_hora":0,"sentido":17,"globalid":"{A8E5D6E0-7A72-4D17-A481-B455E1A3C018}","created_user":null,"created_date":null,"last_edited_user":null,"last_edited_date":null},"geometry":{"type":"Point","coordinates":[-74.156315541337079,4.640794239597,0.0]}},
{"type":"Feature","properties":{"ub_ret":"Costado Occidental","longitud":-74.108018030000011,"latitud":4.6275326,"objectid":221,"id_retorno":"RT006","nombre":"Carrera 53","observ":"Sin observacion","id_trazado":"TZ009","esta_oper":1,"tip_ret":2,"eta_oper":1,"buses_hora":0,"sentido":11,"globalid":"{15E33FE1-753F-4D32-95BA-A0653D9D726C}","created_user":null,"created_date":null,"last_edited_user":null,"last_edited_date":null},"geometry":{"type":"Point","coordinates":[-74.108018026458041,4.627532598685096,0.0]}},
{"type":"Feature","properties":{"ub_ret":"Costado Oriental","longitud":-74.07814548,"latitud":4.60229961,"objectid":222,"id_retorno":"RT033","nombre":"Jimenez","observ":"Sin observacion","id_trazado":"TZ015","esta_oper":1,"tip_ret":1,"eta_oper":1,"buses_hora":0,"sentido":3,"globalid":"{D4C6C591-4C3A-473B-8A65-CB176FA18B67}","created_user":null,"created_date":null,"last_edited_user":null,"last_edited_date":null},"geometry":{"type":"Point","coordinates":[-74.078145478122565,4.602299608371262,0.0]}},
{"type":"Feature","properties":{"ub_ret":"Calle 19","longitud":-74.0687823,"latitud":4.60126193,"objectid":223,"id_retorno":"RT034","nombre":"Aguas - Norte","observ":"Sin observacion","id_trazado":"TZ015","esta_oper":1,"tip_ret":1,"eta_oper":1,"buses_hora":0,"sentido":2,"globalid":"{21991306-016D-41EB-9007-FBC2B39E4525}","created_user":null,"created_date":null,"last_edited_user":null,"last_edited_date":null},"geometry":{"type":"Point","coordinates":[-74.06878229884876,4.601261927001784,0.0]}},
{"type":"Feature","properties":{"ub_ret":"Parque Los Periodistas","longitud":-74.06780084,"latitud":4.60274174,"objectid":224,"id_retorno":"RT035","nombre":"Aguas - Sur","observ":"Sin observacion","id_trazado":"TZ015","esta_oper":1,"tip_ret":1,"eta_oper":1,"buses_hora":0,"sentido":1,"globalid":"{A6690DAE-9310-4C33-A65A-A670B145CD46}","created_user":null,"created_date":null,"last_edited_user":null,"last_edited_date":null},"geometry":{"type":"Point","coordinates":[-74.067800840936656,4.602741741481299,0.0]}},
{"type":"Feature","properties":{"ub_ret":"Costado Occidental","longitud":-74.12439444,"latitud":4.68459241,"objectid":225,"id_retorno":"RT018","nombre":"Portal Eldorado","observ":"Sin observacion","id_trazado":"TZ016","esta_oper":1,"tip_ret":1,"eta_oper":1,"buses_hora":0,"sentido":4,"globalid":"{6C4F5512-AE7F-4A7F-8B3E-32372852D416}","created_user":null,"created_date":null,"last_edited_user":null,"last_edited_date":null},"geometry":{"type":"Point","coordinates":[-74.124394439366654,4.684592412488327,0.0]}},
{"type":"Feature","properties":{"ub_ret":"Costado Oriental","longitud":-74.082852530000011,"latitud":4.62980955,"objectid":226,"id_retorno":"RT019","nombre":"Ciudad Universitaria","observ":"Sin observacion","id_trazado":"TZ016","esta_oper":1,"tip_ret":1,"eta_oper":1,"buses_hora":0,"sentido":4,"globalid":"{BE943FC0-82F1-4228-9E89-D241749DB8C9}","created_user":null,"created_date":null,"last_edited_user":null,"last_edited_date":null},"geometry":{"type":"Point","coordinates":[-74.082852533370286,4.629809552528804,0.0]}},
{"type":"Feature","properties":{"ub_ret":"Aeropuerto Eldorado","longitud":-74.14072889,"latitud":4.69682767,"objectid":227,"id_retorno":"RT020","nombre":"Aeropuerto","observ":"Sin observacion","id_trazado":"TZ017","esta_oper":1,"tip_ret":1,"eta_oper":1,"buses_hora":0,"sentido":4,"globalid":"{7EA30D95-B079-4E46-8CFC-32F5F086565C}","created_user":null,"created_date":null,"last_edited_user":null,"last_edited_date":null},"geometry":{"type":"Point","coordinates":[-74.140728886780053,4.696827668791771,0.0]}},
{"type":"Feature","properties":{"ub_ret":"Calle 26 - Avenida Caracas","longitud":-74.07201549,"latitud":4.61391696,"objectid":228,"id_retorno":"RT021","nombre":"Interconector Calle 26","observ":"Sin observacion","id_trazado":"TZ016","esta_oper":1,"tip_ret":4,"eta_oper":1,"buses_hora":0,"sentido":17,"globalid":"{E2FA2166-7E4C-4B86-BF49-15FE299AEA5E}","created_user":null,"created_date":null,"last_edited_user":null,"last_edited_date":null},"geometry":{"type":"Point","coordinates":[-74.072015493362557,4.61391695616481,0.0]}},
{"type":"Feature","properties":{"ub_ret":"Calle 80 - Avenida Nqs","longitud":-74.068352729999987,"latitud":4.67470256,"objectid":229,"id_retorno":"RT015","nombre":"Interconector Calle 80","observ":"Sin observacion","id_trazado":"TZ005","esta_oper":1,"tip_ret":4,"eta_oper":1,"buses_hora":0,"sentido":17,"globalid":"{81CE3CF8-89FB-4F74-9E81-5A878711240D}","created_user":null,"created_date":null,"last_edited_user":null,"last_edited_date":null},"geometry":{"type":"Point","coordinates":[-74.068352730606463,4.674702562641388,0.0]}},
{"type":"Feature","properties":{"ub_ret":"Glorieta Tercer Nivel","longitud":-74.09809945,"latitud":4.6067626,"objectid":230,"id_retorno":"RT039","nombre":"Interconector Calle 6","observ":"Sin observacion","id_trazado":"TZ008","esta_oper":1,"tip_ret":4,"eta_oper":1,"buses_hora":0,"sentido":17,"globalid":"{4E29DB2C-1995-43BE-A8E3-DF29A98308E8}","created_user":null,"created_date":null,"last_edited_user":null,"last_edited_date":null},"geometry":{"type":"Point","coordinates":[-74.098099450943209,4.606762597744403,0.0]}},
{"type":"Feature","properties":{"ub_ret":"Costado Norte","longitud":-74.08143159000001,"latitud":4.59468688,"objectid":231,"id_retorno":"RT030","nombre":"Interconector Bicentenario","observ":"Sin observacion","id_trazado":"TZ018","esta_oper":1,"tip_ret":4,"eta_oper":1,"buses_hora":0,"sentido":17,"globalid":"{97A6C4C8-11E6-4374-BFB0-0CE880E53F6C}","created_user":null,"created_date":null,"last_edited_user":null,"last_edited_date":null},"geometry":{"type":"Point","coordinates":[-74.081431591888872,4.594686880887735,0.0]}},
{"type":"Feature","properties":{"ub_ret":"Costado Norte (Calle 114)","longitud":-74.06871664000001,"latitud":4.69597942,"objectid":232,"id_retorno":"RT047","nombre":"Puentelargo","observ":"Sin observacion","id_trazado":"TZ003","esta_oper":1,"tip_ret":2,"eta_oper":1,"buses_hora":0,"sentido":5,"globalid":"{C9565D87-742E-4568-9231-3F6D4F88796C}","created_user":null,"created_date":null,"last_edited_user":null,"last_edited_date":null},"geometry":{"type":"Point","coordinates":[-74.068716636064565,4.695979422324486,0.0]}},
{"type":"Feature","properties":{"ub_ret":"Costado Norte","longitud":-74.06885962,"latitud":4.61644156,"objectid":233,"id_retorno":"RT031","nombre":"Museo Nacional - Norte","observ":"Sin observacion","id_trazado":"TZ019","esta_oper":1,"tip_ret":1,"eta_oper":1,"buses_hora":0,"sentido":2,"globalid":"{D54BFA21-8F95-43C9-A6F6-515C1284FC77}","created_user":null,"created_date":null,"last_edited_user":null,"last_edited_date":null},"geometry":{"type":"Point","coordinates":[-74.06885961680598,4.616441560275401,0.0]}},
{"type":"Feature","properties":{"ub_ret":"Costado Norte (Calle 191)","longitud":-74.04343015000001,"latitud":4.7697149,"objectid":234,"id_retorno":"RT013","nombre":"Terminal","observ":"Sin observacion","id_trazado":"TZ002","esta_oper":1,"tip_ret":1,"eta_oper":1,"buses_hora":0,"sentido":2,"globalid":"{D40E99FC-D7D8-4029-BFF0-D5EF373B333F}","created_user":null,"created_date":null,"last_edited_user":null,"last_edited_date":null},"geometry":{"type":"Point","coordinates":[-74.043430145472499,4.769714901659979,0.0]}},
{"type":"Feature","properties":{"ub_ret":"Costado Oriental","longitud":-74.08775342,"latitud":4.5990699,"objectid":235,"id_retorno":"RT040","nombre":"Tygua - San Jose","observ":"Sin observacion","id_trazado":"TZ007","esta_oper":1,"tip_ret":1,"eta_oper":1,"buses_hora":0,"sentido":4,"globalid":"{DF6FB7A6-9664-4961-AE39-3FACF1F1A5F1}","created_user":null,"created_date":null,"last_edited_user":null,"last_edited_date":null},"geometry":{"type":"Point","coordinates":[-74.087753424475181,4.599069902882571,0.0]}},
{"type":"Feature","properties":{"ub_ret":"Glorieta Costado Sur (Calle 44 Sur)","longitud":-74.123497,"latitud":4.57432603,"objectid":236,"id_retorno":"RT028","nombre":"Calle 40 S","observ":"Retorno  externo","id_trazado":"TZ012","esta_oper":1,"tip_ret":1,"eta_oper":1,"buses_hora":32,"sentido":1,"globalid":"{0B5BA1CC-387C-4224-80D7-EB92A7B453C6}","created_user":null,"created_date":null,"last_edited_user":null,"last_edited_date":null},"geometry":{"type":"Point","coordinates":[-74.123497004282882,4.574326029418007,0.0]}},
{"type":"Feature","properties":{"ub_ret":"Glorieta Calle 19","longitud":-74.06813328,"latitud":4.60298899,"objectid":237,"id_retorno":"RT022","nombre":"Universidades Glorieta","observ":"Sin observacion","id_trazado":"TZ016","esta_oper":1,"tip_ret":3,"eta_oper":1,"buses_hora":0,"sentido":1,"globalid":"{213702B0-FF59-4A83-84AD-E1A9ED27DED6}","created_user":null,"created_date":null,"last_edited_user":null,"last_edited_date":null},"geometry":{"type":"Point","coordinates":[-74.068133282199582,4.602988991796246,0.0]}},
{"type":"Feature","properties":{"ub_ret":"Calle 80 (Carerra 120)","longitud":-74.12582662,"latitud":4.72744281,"objectid":238,"id_retorno":"RT025","nombre":"Puente Guadua","observ":"Sin observacion","id_trazado":"TZ006","esta_oper":1,"tip_ret":1,"eta_oper":1,"buses_hora":0,"sentido":4,"globalid":"{62BD664F-07D8-43C4-9087-BD23B6FBAFCC}","created_user":null,"created_date":null,"last_edited_user":null,"last_edited_date":null},"geometry":{"type":"Point","coordinates":[-74.125826621990527,4.727442805442311,0.0]}},
{"type":"Feature","properties":{"ub_ret":"Avenida Caracas - Calle Sexta","longitud":-74.08565221000001,"latitud":4.59760199,"objectid":239,"id_retorno":"RT041","nombre":"Calle 6","observ":"Sin observacion","id_trazado":"TZ007","esta_oper":1,"tip_ret":1,"eta_oper":1,"buses_hora":0,"sentido":4,"globalid":"{D1BFC1B3-40F1-471D-8A65-BEABA2A88505}","created_user":null,"created_date":null,"last_edited_user":null,"last_edited_date":null},"geometry":{"type":"Point","coordinates":[-74.085652211447851,4.597601985315682,0.0]}},
{"type":"Feature","properties":{"ub_ret":"Costado Sur","longitud":-74.06953414,"latitud":4.61428168,"objectid":240,"id_retorno":"RT032","nombre":"Museo Nacional - Sur","observ":"Sin observacion","id_trazado":"TZ019","esta_oper":1,"tip_ret":1,"eta_oper":1,"buses_hora":0,"sentido":1,"globalid":"{13EE76E0-1F93-4BFA-99C9-55375D14B6BC}","created_user":null,"created_date":null,"last_edited_user":null,"last_edited_date":null},"geometry":{"type":"Point","coordinates":[-74.069534135222341,4.614281684540787,0.0]}},
{"type":"Feature","properties":{"ub_ret":"Costado Norte (Calle 171)","longitud":-74.04637781,"latitud":4.75268958,"objectid":259,"id_retorno":"RT007","nombre":"Toberin","observ":"Sin observacion","id_trazado":"TZ002","esta_oper":1,"tip_ret":2,"eta_oper":1,"buses_hora":58,"sentido":5,"globalid":"{D5466610-96DE-4FD6-8ADA-0247EB3E3465}","created_user":null,"created_date":null,"last_edited_user":null,"last_edited_date":null},"geometry":{"type":"Point","coordinates":[-74.046377805576512,4.752689580071612,0.0]}},
{"type":"Feature","properties":{"ub_ret":"Costado Sur (Fuera Del Portal)","longitud":-74.0463346,"latitud":4.75294032,"objectid":260,"id_retorno":"RT011","nombre":"Portal Norte - Sur","observ":"Sin observacion","id_trazado":"TZ002","esta_oper":1,"tip_ret":1,"eta_oper":1,"buses_hora":0,"sentido":1,"globalid":"{5471BA24-6B9C-4E61-B931-8F53C2F7D4A3}","created_user":null,"created_date":null,"last_edited_user":null,"last_edited_date":null},"geometry":{"type":"Point","coordinates":[-74.046334595910324,4.752940324363491,0.0]}}
]
}
