{
"type": "FeatureCollection",
"name": "estaciones_linea1",
"crs": { "type": "name", "properties": { "name": "urn:ogc:def:crs:OGC:1.3:CRS84" } },
"features": [
{ "type": "Feature", "properties": { "OBJECTID": 1, "RefName": "Portal de las Américas-02", "NUMERO": "02", "NOMBRE": "E02", "Shape_Leng": 356.20026749499999, "Shape_Area": 4215.0112393999998, "TIPO": "No Definida" }, "geometry": { "type": "MultiPolygon", "coordinates": [ [ [ [ -74.172288919968963, 4.630559671543396, 0.0 ], [ -74.172065508501078, 4.630679117988551, 0.0 ], [ -74.171430059963626, 4.629482471091324, 0.0 ], [ -74.171653471163822, 4.629363024849031, 0.0 ], [ -74.172288919968963, 4.630559671543396, 0.0 ] ] ] ] } },
{ "type": "Feature", "properties": { "OBJECTID": 2, "RefName": "Carrera 80-03", "NUMERO": "03", "NOMBRE": "E03", "Shape_Leng": 320.39985234800002, "Shape_Area": 2203.98914358, "TIPO": "No Definida" }, "geometry": { "type": "MultiPolygon", "coordinates": [ [ [ [ -74.16632037112393, 4.621718915365318, 0.0 ], [ -74.166438229479013, 4.621648970178285, 0.0 ], [ -74.16710321357597, 4.622777135144309, 0.0 ], [ -74.16698535239766, 4.622847082251314, 0.0 ], [ -74.16632037112393, 4.621718915365318, 0.0 ] ] ] ] } },
{ "type": "Feature", "properties": { "OBJECTID": 3, "RefName": "Calle 42 Sur-04", "NUMERO": "04", "NOMBRE": "E04", "Shape_Leng": 320.39996520900002, "Shape_Area": 2203.99540815, "TIPO": "No Definida" }, "geometry": { "type": "MultiPolygon", "coordinates": [ [ [ [ -74.161078095071801, 4.61569119993574, 0.0 ], [ -74.159791677972251, 4.61591870861394, 0.0 ], [ -74.159767910824229, 4.615783394796791, 0.0 ], [ -74.161054327687822, 4.615555886162284, 0.0 ], [ -74.161078095071801, 4.61569119993574, 0.0 ] ] ] ] } },
{ "type": "Feature", "properties": { "OBJECTID": 4, "RefName": "Kennedy-05", "NUMERO": "05", "NOMBRE": "E05", "Shape_Leng": 320.39976824399997, "Shape_Area": 2203.99391122, "TIPO": "No Definida" }, "geometry": { "type": "MultiPolygon", "coordinates": [ [ [ [ -74.152249931059941, 4.61725245028009, 0.0 ], [ -74.150963509238622, 4.617479942727362, 0.0 ], [ -74.150939743710467, 4.617344628610373, 0.0 ], [ -74.152226165295673, 4.617117136206793, 0.0 ], [ -74.152249931059941, 4.61725245028009, 0.0 ] ] ] ] } },
{ "type": "Feature", "properties": { "OBJECTID": 5, "RefName": "Av Boyaca-06", "NUMERO": "06", "NOMBRE": "E06", "Shape_Leng": 349.20320176400003, "Shape_Area": 3690.00620278, "TIPO": "No Definida" }, "geometry": { "type": "MultiPolygon", "coordinates": [ [ [ [ -74.141300405226133, 4.618638140540615, 0.0 ], [ -74.141216494675675, 4.618843954658209, 0.0 ], [ -74.14008170689948, 4.618378126704748, 0.0 ], [ -74.140076773798754, 4.618376101821646, 0.0 ], [ -74.140070035377803, 4.618373335686622, 0.0 ], [ -74.140066700399956, 4.618371966178593, 0.0 ], [ -74.139980819770216, 4.618336712414588, 0.0 ], [ -74.139965786246677, 4.618330541038674, 0.0 ], [ -74.139973591489536, 4.618311469677242, 0.0 ], [ -74.139984572342186, 4.618284536734532, 0.0 ], [ -74.139987995694227, 4.61827613911616, 0.0 ], [ -74.139990603747876, 4.618269743728662, 0.0 ], [ -74.139997908099659, 4.618251828508118, 0.0 ], [ -74.140007767352415, 4.618227645355689, 0.0 ], [ -74.140019756289334, 4.618198238323962, 0.0 ], [ -74.140021342742372, 4.618194347758819, 0.0 ], [ -74.140035865858721, 4.61815872612753, 0.0 ], [ -74.140049723222006, 4.618124737918649, 0.0 ], [ -74.140150611226218, 4.618166152198881, 0.0 ], [ -74.140153946203256, 4.618167521706528, 0.0 ], [ -74.140165619523856, 4.618172313627198, 0.0 ], [ -74.141300405226133, 4.618638140540615, 0.0 ] ] ] ] } },
{ "type": "Feature", "properties": { "OBJECTID": 6, "RefName": "Av 68-07", "NUMERO": "07", "NOMBRE": "E07", "Shape_Leng": 324.399858107, "Shape_Area": 2494.0015733099999, "TIPO": "No Definida" }, "geometry": { "type": "MultiPolygon", "coordinates": [ [ [ [ -74.128829173846185, 4.608983989540632, 0.0 ], [ -74.128721125821386, 4.609095429670309, 0.0 ], [ -74.127784875618175, 4.608181434299796, 0.0 ], [ -74.127892923650208, 4.608069994314698, 0.0 ], [ -74.128829173846185, 4.608983989540632, 0.0 ] ] ] ] } },
{ "type": "Feature", "properties": { "OBJECTID": 7, "RefName": "Cra 50-08", "NUMERO": "08", "NOMBRE": "E08", "Shape_Leng": 344.79491219800002, "Shape_Area": 3359.9443418000001, "TIPO": "No Definida" }, "geometry": { "type": "MultiPolygon", "coordinates": [ [ [ [ -74.120713629017217, 4.602333540150057, 0.0 ], [ -74.120822568515266, 4.602163099884161, 0.0 ], [ -74.1219596979264, 4.602895493719913, 0.0 ], [ -74.121850797321883, 4.60306595947468, 0.0 ], [ -74.120713629017217, 4.602333540150057, 0.0 ] ] ] ] } },
{ "type": "Feature", "properties": { "OBJECTID": 8, "RefName": "NQS-09", "NUMERO": "09", "NOMBRE": "E09", "Shape_Leng": 334.399981916, "Shape_Area": 2580.00230633, "TIPO": "No Definida" }, "geometry": { "type": "MultiPolygon", "coordinates": [ [ [ [ -74.111380104872083, 4.596939337916143, 0.0 ], [ -74.111447802963397, 4.597079190678227, 0.0 ], [ -74.110232351954522, 4.5976716203411, 0.0 ], [ -74.110164654045221, 4.597531766557458, 0.0 ], [ -74.111380104872083, 4.596939337916143, 0.0 ] ] ] ] } },
{ "type": "Feature", "properties": { "OBJECTID": 9, "RefName": "Nariño-10", "NUMERO": "10", "NOMBRE": "E10", "Shape_Leng": 320.399939819, "Shape_Area": 2203.9991330600001, "TIPO": "No Definida" }, "geometry": { "type": "MultiPolygon", "coordinates": [ [ [ [ -74.097593543851673, 4.594570317422511, 0.0 ], [ -74.096347790372775, 4.594176184904515, 0.0 ], [ -74.096388963926685, 4.594045143831346, 0.0 ], [ -74.097634717201487, 4.59443927717999, 0.0 ], [ -74.097593543851673, 4.594570317422511, 0.0 ] ] ] ] } },
{ "type": "Feature", "properties": { "OBJECTID": 10, "RefName": "Calle 1ra-11", "NUMERO": "11", "NOMBRE": "E11", "Shape_Leng": 334.40001435400001, "Shape_Area": 2580.0063912000001, "TIPO": "No Definida" }, "geometry": { "type": "MultiPolygon", "coordinates": [ [ [ [ -74.087343441759046, 4.593812831997407, 0.0 ], [ -74.086485106354289, 4.594860050689753, 0.0 ], [ -74.086365438183236, 4.594761287099772, 0.0 ], [ -74.087223774543432, 4.593714068554307, 0.0 ], [ -74.087343441759046, 4.593812831997407, 0.0 ] ] ] ] } },
{ "type": "Feature", "properties": { "OBJECTID": 11, "RefName": "Calle 10-12", "NUMERO": "12", "NOMBRE": "E12", "Shape_Leng": 336.40010711399998, "Shape_Area": 2730.00360507, "TIPO": "No Definida" }, "geometry": { "type": "MultiPolygon", "coordinates": [ [ [ [ -74.080178484172166, 4.603345691636335, 0.0 ], [ -74.080045227787622, 4.603249845418489, 0.0 ], [ -74.08083245469615, 4.602147798244354, 0.0 ], [ -74.080965710983179, 4.602243644312295, 0.0 ], [ -74.080178484172166, 4.603345691636335, 0.0 ] ] ] ] } },
{ "type": "Feature", "properties": { "OBJECTID": 12, "RefName": "Calle 26-13", "NUMERO": "13", "NOMBRE": "E13", "Shape_Leng": 324.40004741500002, "Shape_Area": 2494.0051085099999, "TIPO": "No Definida" }, "geometry": { "type": "MultiPolygon", "coordinates": [ [ [ [ -74.073582679191404, 4.614048154041016, 0.0 ], [ -74.073444648205026, 4.613977509867718, 0.0 ], [ -74.074038152623231, 4.612809897757841, 0.0 ], [ -74.074176181642983, 4.612880540909961, 0.0 ], [ -74.073582679191404, 4.614048154041016, 0.0 ] ] ] ] } },
{ "type": "Feature", "properties": { "OBJECTID": 13, "RefName": "Calle 45-14", "NUMERO": "14", "NOMBRE": "E14", "Shape_Leng": 336.40016546099997, "Shape_Area": 2730.0079413899998, "TIPO": "No Definida" }, "geometry": { "type": "MultiPolygon", "coordinates": [ [ [ [ -74.067772924547143, 4.631517724302867, 0.0 ], [ -74.068014058541806, 4.630183569005855, 0.0 ], [ -74.06817538791438, 4.630212926453047, 0.0 ], [ -74.067934252409344, 4.631547081805419, 0.0 ], [ -74.067772924547143, 4.631517724302867, 0.0 ] ] ] ] } },
{ "type": "Feature", "properties": { "OBJECTID": 14, "RefName": "Calle 63-15", "NUMERO": "15", "NOMBRE": "E15", "Shape_Leng": 334.39996383300002, "Shape_Area": 2579.9933418199998, "TIPO": "No Definida" }, "geometry": { "type": "MultiPolygon", "coordinates": [ [ [ [ -74.064760183305921, 4.64941948498352, 0.0 ], [ -74.064607632372059, 4.649392208660241, 0.0 ], [ -74.064844702467681, 4.648057319069002, 0.0 ], [ -74.064997254025371, 4.648084595340721, 0.0 ], [ -74.064760183305921, 4.64941948498352, 0.0 ] ] ] ] } },
{ "type": "Feature", "properties": { "OBJECTID": 15, "RefName": "Calle 72-16", "NUMERO": "16", "NOMBRE": "E16", "Shape_Leng": 343.99987850600002, "Shape_Area": 3299.9962829000001, "TIPO": "No Definida" }, "geometry": { "type": "MultiPolygon", "coordinates": [ [ [ [ -74.061702094718129, 4.659859574613363, 0.0 ], [ -74.061897389072641, 4.659893505260879, 0.0 ], [ -74.061666819847218, 4.661229540847405, 0.0 ], [ -74.061471524235245, 4.661195610135476, 0.0 ], [ -74.061702094718129, 4.659859574613363, 0.0 ] ] ] ] } },
{ "type": "Feature", "properties": { "OBJECTID": 16, "RefName": "Cra 96-01", "NUMERO": "01", "NOMBRE": "E01", "Shape_Leng": 344.801037167, "Shape_Area": 3360.0610290599998, "TIPO": "No Definida" }, "geometry": { "type": "MultiPolygon", "coordinates": [ [ [ [ -74.177868765452658, 4.641121881961572, 0.0 ], [ -74.177690664456904, 4.641217103349002, 0.0 ], [ -74.177055203243896, 4.640020459751268, 0.0 ], [ -74.177233295917944, 4.639925238525922, 0.0 ], [ -74.177868765452658, 4.641121881961572, 0.0 ] ] ] ] } }
]
}
